{"type": "FeatureCollection", "features": [ {"type": "Feature", "properties": {"norad_id": 66664, "name": "SOYUZ-MS 28", "group": "last-30-days", "lat": -36.29374595525013, "lon": 68.96315768052287, "alt_km": 419.9334910844236, "timestamp": "2025-12-20T09:36:00.351866+00:00", "meta": {"OBJECT_NAME": "SOYUZ-MS 28", "OBJECT_ID": "2025-275A", "EPOCH": "2025-12-19T18:20:02.854752", "MEAN_MOTION": 15.49672026, "ECCENTRICITY": 0.0003187, "INCLINATION": 51.6318, "RA_OF_ASC_NODE": 107.6945, "ARG_OF_PERICENTER": 273.0117, "MEAN_ANOMALY": 87.0507, "EPHEMERIS_TYPE": 0, "CLASSIFICATION_TYPE": "U", "NORAD_CAT_ID": 66664, "ELEMENT_SET_NO": 999, "REV_AT_EPOCH": 353, "BSTAR": 0.00012626, "MEAN_MOTION_DOT": 6.675e-05, "MEAN_MOTION_DDOT": 0}, "tle": {"line1": "1 66664U 25275A   25353.76392193  .00006675  00000+0  12626-3 0  9990", "line2": "2 66664  51.6318 107.6945 0003187 273.0117  87.0507 15.49672026  3536"}}, "geometry": {"type": "Point", "coordinates": [68.96315768052287, -36.29374595525013]}}, {"type": "Feature", "properties": {"norad_id": 66666, "name": "TRANSPORTER-15 A", "group": "last-30-days", "lat": -9.783304091952735, "lon": -115.09689842319538, "alt_km": 567.6137891685885, "timestamp": "2025-12-20T09:36:00.351878+00:00", "meta": {"OBJECT_NAME": "TRANSPORTER-15 A", "OBJECT_ID": "2025-276A", "EPOCH": "2025-12-20T03:57:17.728992", "MEAN_MOTION": 15.00328968, "ECCENTRICITY": 0.0003663, "INCLINATION": 97.6583, "RA_OF_ASC_NODE": 66.001, "ARG_OF_PERICENTER": 201.3958, "MEAN_ANOMALY": 158.7113, "EPHEMERIS_TYPE": 0, "CLASSIFICATION_TYPE": "U", "NORAD_CAT_ID": 66666, "ELEMENT_SET_NO": 999, "REV_AT_EPOCH": 320, "BSTAR": 0.00026516, "MEAN_MOTION_DOT": 3.267e-05, "MEAN_MOTION_DDOT": 0}, "tle": {"line1": "1 66666U 25276A   25354.16478853  .00003267  00000+0  26516-3 0  9993", "line2": "2 66666  97.6583  66.0010 0003663 201.3958 158.7113 15.00328968  3202"}}, "geometry": {"type": "Point", "coordinates": [-115.09689842319538, -9.783304091952735]}}, {"type": "Feature", "properties": {"norad_id": 66667, "name": "PELICAN-5", "group": "last-30-days", "lat": 80.33806257906036, "lon": 15.883175228221253, "alt_km": 506.77350751265385, "timestamp": "2025-12-20T09:36:00.351888+00:00", "meta": {"OBJECT_NAME": "PELICAN-5", "OBJECT_ID": "2025-276B", "EPOCH": "2025-12-20T04:29:04.448256", "MEAN_MOTION": 15.17582581, "ECCENTRICITY": 0.0001872, "INCLINATION": 97.4425, "RA_OF_ASC_NODE": 65.8331, "ARG_OF_PERICENTER": 226.8725, "MEAN_ANOMALY": 133.2352, "EPHEMERIS_TYPE": 0, "CLASSIFICATION_TYPE": "U", "NORAD_CAT_ID": 66667, "ELEMENT_SET_NO": 999, "REV_AT_EPOCH": 325, "BSTAR": 0.00025668, "MEAN_MOTION_DOT": 5.09e-05, "MEAN_MOTION_DDOT": 0}, "tle": {"line1": "1 66667U 25276B   25354.18685704  .00005090  00000+0  25668-3 0  9994", "line2": "2 66667  97.4425  65.8331 0001872 226.8725 133.2352 15.17582581  3252"}}, "geometry": {"type": "Point", "coordinates": [15.883175228221253, 80.33806257906036]}}, {"type": "Feature", "properties": {"norad_id": 66668, "name": "TRANSPORTER-15 C", "group": "last-30-days", "lat": 8.360859917341251, "lon": 64.87454568931577, "alt_km": 516.8109626556998, "timestamp": "2025-12-20T09:36:00.351899+00:00", "meta": {"OBJECT_NAME": "TRANSPORTER-15 C", "OBJECT_ID": "2025-276C", "EPOCH": "2025-12-20T01:38:52.641312", "MEAN_MOTION": 15.17054823, "ECCENTRICITY": 0.0007712, "INCLINATION": 97.4291, "RA_OF_ASC_NODE": 65.6486, "ARG_OF_PERICENTER": 277.9285, "MEAN_ANOMALY": 82.1073, "EPHEMERIS_TYPE": 0, "CLASSIFICATION_TYPE": "U", "NORAD_CAT_ID": 66668, "ELEMENT_SET_NO": 999, "REV_AT_EPOCH": 323, "BSTAR": 0.00069791, "MEAN_MOTION_DOT": 0.0001377, "MEAN_MOTION_DDOT": 0}, "tle": {"line1": "1 66668U 25276C   25354.06866483  .00013770  00000+0  69791-3 0  9996", "line2": "2 66668  97.4291  65.6486 0007712 277.9285  82.1073 15.17054823  3233"}}, "geometry": {"type": "Point", "coordinates": [64.87454568931577, 8.360859917341251]}}, {"type": "Feature", "properties": {"norad_id": 66669, "name": "TRANSPORTER-15 D", "group": "last-30-days", "lat": 36.06422459135564, "lon": 60.53713606690503, "alt_km": 508.39275777768853, "timestamp": "2025-12-20T09:36:00.351908+00:00", "meta": {"OBJECT_NAME": "TRANSPORTER-15 D", "OBJECT_ID": "2025-276D", "EPOCH": "2025-12-20T03:08:59.510112", "MEAN_MOTION": 15.25643349, "ECCENTRICITY": 0.0048308, "INCLINATION": 97.4323, "RA_OF_ASC_NODE": 65.7247, "ARG_OF_PERICENTER": 228.3761, "MEAN_ANOMALY": 131.3335, "EPHEMERIS_TYPE": 0, "CLASSIFICATION_TYPE": "U", "NORAD_CAT_ID": 66669, "ELEMENT_SET_NO": 999, "REV_AT_EPOCH": 324, "BSTAR": 0.21715, "MEAN_MOTION_DOT": 0.06545393, "MEAN_MOTION_DDOT": 0}, "tle": {"line1": "1 66669U 25276D   25354.13124433  .06545393  00000+0  21715+0 0  9994", "line2": "2 66669  97.4323  65.7247 0048308 228.3761 131.3335 15.25643349  3246"}}, "geometry": {"type": "Point", "coordinates": [60.53713606690503, 36.06422459135564]}}, {"type": "Feature", "properties": {"norad_id": 66670, "name": "TRANSPORTER-15 E", "group": "last-30-days", "lat": 14.716342700076225, "lon": 64.0185212832313, "alt_km": 515.8344702148142, "timestamp": "2025-12-20T09:36:00.351918+00:00", "meta": {"OBJECT_NAME": "TRANSPORTER-15 E", "OBJECT_ID": "2025-276E", "EPOCH": "2025-12-20T03:12:11.116800", "MEAN_MOTION": 15.17123967, "ECCENTRICITY": 0.0007109, "INCLINATION": 97.4311, "RA_OF_ASC_NODE": 65.7217, "ARG_OF_PERICENTER": 281.8615, "MEAN_ANOMALY": 78.1821, "EPHEMERIS_TYPE": 0, "CLASSIFICATION_TYPE": "U", "NORAD_CAT_ID": 66670, "ELEMENT_SET_NO": 999, "REV_AT_EPOCH": 324, "BSTAR": 0.00074455, "MEAN_MOTION_DOT": 0.00014724, "MEAN_MOTION_DDOT": 0}, "tle": {"line1": "1 66670U 25276E   25354.13346200  .00014724  00000+0  74455-3 0  9990", "line2": "2 66670  97.4311  65.7217 0007109 281.8615  78.1821 15.17123967  3246"}}, "geometry": {"type": "Point", "coordinates": [64.0185212832313, 14.716342700076225]}}, {"type": "Feature", "properties": {"norad_id": 66671, "name": "TRANSPORTER-15 F", "group": "last-30-days", "lat": 26.737943164091856, "lon": 62.24250313338616, "alt_km": 515.7624606679428, "timestamp": "2025-12-20T09:36:00.351942+00:00", "meta": {"OBJECT_NAME": "TRANSPORTER-15 F", "OBJECT_ID": "2025-276F", "EPOCH": "2025-12-20T03:08:57.809760", "MEAN_MOTION": 15.17050575, "ECCENTRICITY": 0.0004986, "INCLINATION": 97.4435, "RA_OF_ASC_NODE": 65.755, "ARG_OF_PERICENTER": 263.614, "MEAN_ANOMALY": 96.4526, "EPHEMERIS_TYPE": 0, "CLASSIFICATION_TYPE": "U", "NORAD_CAT_ID": 66671, "ELEMENT_SET_NO": 999, "REV_AT_EPOCH": 324, "BSTAR": 0.00041393, "MEAN_MOTION_DOT": 8.13e-05, "MEAN_MOTION_DDOT": 0}, "tle": {"line1": "1 66671U 25276F   25354.13122465  .00008130  00000+0  41393-3 0  9995", "line2": "2 66671  97.4435  65.7550 0004986 263.6140  96.4526 15.17050575  3244"}}, "geometry": {"type": "Point", "coordinates": [62.24250313338616, 26.737943164091856]}}, {"type": "Feature", "properties": {"norad_id": 66672, "name": "TRANSPORTER-15 G", "group": "last-30-days", "lat": 4.84364849169353, "lon": 65.36854912721353, "alt_km": 519.419480473689, "timestamp": "2025-12-20T09:36:00.351956+00:00", "meta": {"OBJECT_NAME": "TRANSPORTER-15 G", "OBJECT_ID": "2025-276G", "EPOCH": "2025-12-20T03:14:40.701120", "MEAN_MOTION": 15.16599881, "ECCENTRICITY": 0.0005339, "INCLINATION": 97.4407, "RA_OF_ASC_NODE": 65.7433, "ARG_OF_PERICENTER": 262.1715, "MEAN_ANOMALY": 97.8912, "EPHEMERIS_TYPE": 0, "CLASSIFICATION_TYPE": "U", "NORAD_CAT_ID": 66672, "ELEMENT_SET_NO": 999, "REV_AT_EPOCH": 324, "BSTAR": 0.00032209, "MEAN_MOTION_DOT": 6.229e-05, "MEAN_MOTION_DDOT": 0}, "tle": {"line1": "1 66672U 25276G   25354.13519330  .00006229  00000+0  32209-3 0  9990", "line2": "2 66672  97.4407  65.7433 0005339 262.1715  97.8912 15.16599881  3240"}}, "geometry": {"type": "Point", "coordinates": [65.36854912721353, 4.84364849169353]}}, {"type": "Feature", "properties": {"norad_id": 66673, "name": "TRANSPORTER-15 H", "group": "last-30-days", "lat": 21.345284113293886, "lon": 63.07420328670526, "alt_km": 515.4784203329027, "timestamp": "2025-12-20T09:36:00.351966+00:00", "meta": {"OBJECT_NAME": "TRANSPORTER-15 H", "OBJECT_ID": "2025-276H", "EPOCH": "2025-12-20T03:10:24.240000", "MEAN_MOTION": 15.17059036, "ECCENTRICITY": 0.000576, "INCLINATION": 97.4375, "RA_OF_ASC_NODE": 65.7377, "ARG_OF_PERICENTER": 280.6788, "MEAN_ANOMALY": 79.3797, "EPHEMERIS_TYPE": 0, "CLASSIFICATION_TYPE": "U", "NORAD_CAT_ID": 66673, "ELEMENT_SET_NO": 999, "REV_AT_EPOCH": 324, "BSTAR": 0.00040026, "MEAN_MOTION_DOT": 7.861e-05, "MEAN_MOTION_DDOT": 0}, "tle": {"line1": "1 66673U 25276H   25354.13222500  .00007861  00000+0  40026-3 0  9990", "line2": "2 66673  97.4375  65.7377 0005760 280.6788  79.3797 15.17059036  3245"}}, "geometry": {"type": "Point", "coordinates": [63.07420328670526, 21.345284113293886]}}, {"type": "Feature", "properties": {"norad_id": 66674, "name": "TRANSPORTER-15 J", "group": "last-30-days", "lat": 13.353647250051303, "lon": 64.22346254976398, "alt_km": 517.9787236403672, "timestamp": "2025-12-20T09:36:00.351977+00:00", "meta": {"OBJECT_NAME": "TRANSPORTER-15 J", "OBJECT_ID": "2025-276J", "EPOCH": "2025-12-20T04:47:26.714400", "MEAN_MOTION": 15.16715913, "ECCENTRICITY": 0.0004944, "INCLINATION": 97.4383, "RA_OF_ASC_NODE": 65.8041, "ARG_OF_PERICENTER": 266.7808, "MEAN_ANOMALY": 93.2859, "EPHEMERIS_TYPE": 0, "CLASSIFICATION_TYPE": "U", "NORAD_CAT_ID": 66674, "ELEMENT_SET_NO": 999, "REV_AT_EPOCH": 325, "BSTAR": 0.00025742, "MEAN_MOTION_DOT": 4.981e-05, "MEAN_MOTION_DDOT": 0}, "tle": {"line1": "1 66674U 25276J   25354.19961475  .00004981  00000+0  25742-3 0  9996", "line2": "2 66674  97.4383  65.8041 0004944 266.7808  93.2859 15.16715913  3252"}}, "geometry": {"type": "Point", "coordinates": [64.22346254976398, 13.353647250051303]}}]}